SENTINEL-6              
1 46984U 20086A   23361.91805633 -.00000029  00000+0  14036-3 0  9995
2 46984  66.0392 209.0737 0007650 269.3241  90.6897 12.80929483144769
